     2.100          NAVIGATION                              RINEX VERSION / TYPE
fic2rin                                 04/06/2010 00:29:48 PGM / RUN BY / DATE
                                                            END OF HEADER
30 10  4  5 16  0  0.0  .230997335166D-03  .341060513165D-11  .000000000000D+00
     .390000000000D+02 -.702500000000D+02  .432196574151D-08  .297457165343D+01
    -.358186662197D-05  .120359407738D-01  .842474400997D-05  .515376121521D+04
     .144000000000D+06  .912696123123D-07 -.189117850948D+01 -.130385160446D-07
     .955245907495D+00  .211687500000D+03  .147597168559D+01 -.774246536190D-08
     .185364864048D-09  .100000000000D+01  .157800000000D+04  .000000000000D+00
     .340000000000D+01  .000000000000D+00 -.791624188423D-08  .390000000000D+02
     .136806000000D+06  .400000000000D+01
31 10  4  5 16  0  0.0 -.437945127487D-04  .204636307899D-11  .000000000000D+00
     .690000000000D+02 -.483125000000D+02  .419160316853D-08 -.955446870014D+00
    -.251084566116D-05  .751167919952D-02  .487267971039D-05  .515365920258D+04
     .144000000000D+06 -.115483999252D-06 -.289247676944D+01  .670552253723D-07
     .976610083707D+00  .298031250000D+03 -.106801095241D+01 -.816534011919D-08
     .357157734196D-11  .100000000000D+01  .157800000000D+04  .000000000000D+00
     .240000000000D+01  .000000000000D+00 -.130385160446D-07  .690000000000D+02
     .136806000000D+06  .400000000000D+01
17 10  4  5 15 59 44.0  .142191536725D-03  .261479726760D-11  .000000000000D+00
     .900000000000D+01 -.148750000000D+02  .462912139292D-08  .183914535878D+01
    -.702217221260D-06  .533204956446D-02  .794976949692D-05  .515358475113D+04
     .143984000000D+06 -.176951289177D-06 -.777666571128D+00  .391155481339D-07
     .960133335396D+00  .222375000000D+03 -.253307703575D+01 -.803640617715D-08
     .264653881039D-09  .100000000000D+01  .157800000000D+04  .000000000000D+00
     .240000000000D+01  .000000000000D+00 -.102445483208D-07  .900000000000D+01
     .138216000000D+06  .400000000000D+01
17 10  4  5 17 59 44.0  .142210163176D-03  .261479726760D-11  .000000000000D+00
     .100000000000D+02 -.170937500000D+02  .447018620120D-08  .288937875075D+01
    -.754371285439D-06  .533230660949D-02  .822916626930D-05  .515358441544D+04
     .151184000000D+06 -.745058059692D-08 -.777723921906D+00 -.968575477600D-07
     .960136322675D+00  .220343750000D+03 -.253307493793D+01 -.783139763772D-08
     .302869758598D-09  .100000000000D+01  .157800000000D+04  .000000000000D+00
     .240000000000D+01  .000000000000D+00 -.102445483208D-07  .100000000000D+02
     .144006000000D+06  .400000000000D+01
 2 10  4  5 18  0  0.0  .243543647230D-03  .375166564481D-11  .000000000000D+00
     .550000000000D+02  .132187500000D+02  .521271713059D-08  .174186220182D+01
     .635161995888D-06  .946691865101D-02  .744499266148D-05  .515379666519D+04
     .151200000000D+06  .782310962677D-07  .231593905741D+00  .137835741043D-06
     .940450287587D+00  .222968750000D+03  .301118729044D+01 -.829105964163D-08
    -.204651381694D-09  .100000000000D+01  .157800000000D+04  .000000000000D+00
     .240000000000D+01  .000000000000D+00 -.172294676304D-07  .550000000000D+02
     .144006000000D+06  .400000000000D+01
 3 10  4  5 18  0  0.0  .537910033017D-03  .511590769747D-11  .000000000000D+00
     .740000000000D+02 -.222812500000D+02  .537093800684D-08  .165717407755D+01
    -.119395554066D-05  .129353841767D-01  .796094536781D-05  .515370060730D+04
     .151200000000D+06 -.284984707832D-06 -.919874537907D+00 -.782310962677D-07
     .926971993224D+00  .209656250000D+03  .986652264381D+00 -.845713798803D-08
     .318584698903D-09  .100000000000D+01  .157800000000D+04  .000000000000D+00
     .340000000000D+01  .000000000000D+00 -.419095158577D-08  .740000000000D+02
     .144006000000D+06  .400000000000D+01
 4 10  4  5 18  0  0.0  .532232224941D-04  .864019966684D-11  .000000000000D+00
     .280000000000D+02  .118437500000D+02  .517592988397D-08 -.147039553780D+01
     .528991222382D-06  .909714668524D-02  .699982047081D-05  .515366184998D+04
     .151200000000D+06  .108033418655D-06  .249515591406D+00 -.633299350739D-07
     .939594875498D+00  .226468750000D+03  .602374406238D+00 -.822284251440D-08
     .314298806093D-10  .100000000000D+01  .157800000000D+04  .000000000000D+00
     .240000000000D+01  .000000000000D+00 -.605359673500D-08  .280000000000D+02
     .144006000000D+06  .400000000000D+01
 5 10  4  5 18  0  0.0 -.209687277675D-05  .454747350886D-12  .000000000000D+00
     .190000000000D+02  .499687500000D+02  .465769401165D-08 -.301735311417D+01
     .258162617683D-05  .188836478628D-02  .818446278572D-05  .515368100548D+04
     .151200000000D+06 -.540167093277D-07  .129093468690D+01 -.372529029846D-08
     .958801949744D+00  .222281250000D+03  .341366659977D+00 -.799747598412D-08
    -.180721813503D-09  .100000000000D+01  .157800000000D+04  .000000000000D+00
     .240000000000D+01  .000000000000D+00 -.884756445885D-08  .190000000000D+02
     .144006000000D+06  .400000000000D+01
 6 10  4  5 18  0  0.0  .673538073897D-03 -.875388650456D-11  .000000000000D+00
     .730000000000D+02 -.115312500000D+02  .515557189312D-08 -.238190041270D+01
    -.387430191040D-06  .617890234571D-02  .758655369282D-05  .515366123390D+04
     .151200000000D+06  .540167093277D-07 -.849674223885D+00  .124797224998D-06
     .934373368310D+00  .215437500000D+03 -.110924179459D+01 -.818784105645D-08
     .352514683652D-09  .100000000000D+01  .157800000000D+04  .000000000000D+00
     .240000000000D+01  .000000000000D+00 -.465661287308D-08  .730000000000D+02
     .144006000000D+06  .400000000000D+01
 7 10  4  5 18  0  0.0  .818632543087D-06 -.454747350886D-12  .000000000000D+00
     .310000000000D+02 -.393750000000D+02  .427196365872D-08  .136038637892D+00
    -.227615237236D-05  .333592621610D-02  .440143048763D-05  .515372324181D+04
     .151200000000D+06  .465661287308D-07 -.289188019730D+01  .502914190292D-07
     .971333905807D+00  .299562500000D+03  .305132272736D+01 -.817319758934D-08
    -.154649298907D-09  .100000000000D+01  .157800000000D+04  .000000000000D+00
     .240000000000D+01  .000000000000D+00 -.107102096081D-07  .310000000000D+02
     .144006000000D+06  .400000000000D+01
 8 10  4  5 18  0  0.0  .465195626020D-05  .341060513165D-12  .000000000000D+00
     .890000000000D+02 -.380937500000D+02  .379265797943D-08 -.485795548523D+00
    -.216998159885D-05  .109881199896D-01  .508688390255D-05  .515370384407D+04
     .151200000000D+06  .247731804848D-06 -.282507895734D+01 -.800937414169D-07
     .992666534191D+00  .297562500000D+03  .309401612336D+01 -.792640159501D-08
    -.117862052285D-09  .100000000000D+01  .157800000000D+04  .000000000000D+00
     .340000000000D+01  .000000000000D+00 -.419095158577D-08  .890000000000D+02
     .144006000000D+06  .400000000000D+01
10 10  4  5 18  0  0.0 -.395881943405D-04 -.909494701773D-12  .000000000000D+00
     .660000000000D+02  .495937500000D+02  .471269630272D-08 -.297040323514D+01
     .244006514549D-05  .917465216480D-02  .823102891445D-05  .515348324966D+04
     .151200000000D+06 -.502914190292D-07  .131700024294D+01 -.152736902237D-06
     .953826464415D+00  .217625000000D+03  .663258530237D+00 -.795390274055D-08
    -.164649715464D-09  .100000000000D+01  .157800000000D+04  .000000000000D+00
     .340000000000D+01  .000000000000D+00 -.279396772385D-08  .660000000000D+02
     .144006000000D+06  .400000000000D+01
11 10  4  5 18  0  0.0 -.547524541616D-04 -.216004991671D-11  .000000000000D+00
     .340000000000D+02  .384375000000D+01  .650169939331D-08  .269193194234D-01
     .257045030594D-06  .105542106321D-01  .693090260029D-05  .515372791481D+04
     .151200000000D+06  .186264514923D-07  .157221385930D-01  .152736902237D-06
     .888923780524D+00  .209000000000D+03  .799657598960D+00 -.906144887429D-08
    -.239295681911D-10  .100000000000D+01  .157800000000D+04  .000000000000D+00
     .240000000000D+01  .000000000000D+00 -.116415321827D-07  .340000000000D+02
     .144006000000D+06  .400000000000D+01
12 10  4  5 18  0  0.0 -.130174681544D-03  .454747350886D-11  .000000000000D+00
     .200000000000D+02 -.569062500000D+02  .424767693279D-08  .178404098858D+00
    -.309012830257D-05  .352651113644D-02  .813603401184D-05  .515371979713D+04
     .151200000000D+06  .782310962677D-07 -.183845481317D+01 -.353902578354D-07
     .969964278014D+00  .228468750000D+03 -.506849877223D+00 -.793675916931D-08
     .803604901941D-10  .100000000000D+01  .157800000000D+04  .000000000000D+00
     .240000000000D+01  .000000000000D+00 -.121071934700D-07  .200000000000D+02
     .144006000000D+06  .400000000000D+01
13 10  4  5 18  0  0.0  .305567402393D-03 -.227373675443D-12  .000000000000D+00
     .700000000000D+01  .543437500000D+02  .381837333629D-08  .265036770405D+01
     .288337469101D-05  .435003265738D-02  .531226396561D-05  .515356984520D+04
     .151200000000D+06  .707805156708D-07  .240924492926D+01 -.117346644402D-06
     .993199017354D+00  .289125000000D+03  .165525761976D+01 -.783604068826D-08
    -.582167106740D-10  .100000000000D+01  .157800000000D+04  .000000000000D+00
     .240000000000D+01  .000000000000D+00 -.111758708954D-07  .700000000000D+01
     .144006000000D+06  .400000000000D+01
14 10  4  5 18  0  0.0  .302633270621D-04  .466116034659D-11  .000000000000D+00
     .800000000000D+02  .534375000000D+02  .393802117725D-08  .246101105791D+01
     .266730785370D-05  .494580366649D-02  .481121242046D-05  .515372786522D+04
     .151200000000D+06  .484287738800D-07  .238777582086D+01 -.106170773506D-06
     .986481177575D+00  .298718750000D+03 -.211419917839D+01 -.783818363467D-08
    -.410731394325D-10  .100000000000D+01  .157800000000D+04  .000000000000D+00
     .240000000000D+01  .000000000000D+00 -.884756445885D-08  .800000000000D+02
     .144006000000D+06  .400000000000D+01
